{
  "type": "FeatureCollection",
  "name": "smart_city_assets",
  "features": [
    {"type": "Feature", "properties": {"infrastructure_id": "SCI-TRN-001", "domain": "transport"}, "geometry": {"type": "Point", "coordinates": [-90.1900, 38.6400]}},
    {"type": "Feature", "properties": {"infrastructure_id": "SCI-STM-001", "domain": "stormwater"}, "geometry": {"type": "Point", "coordinates": [-90.2300, 38.6100]}},
    {"type": "Feature", "properties": {"infrastructure_id": "SCI-DPI-001", "domain": "digital_public_infrastructure"}, "geometry": {"type": "Point", "coordinates": [-90.2000, 38.6400]}}
  ]
}
