{
  "type": "FeatureCollection",
  "name": "cyber_physical_assets",
  "features": [
    {"type": "Feature", "properties": {"asset_id": "CP-GRID-001", "domain": "energy"}, "geometry": {"type": "Point", "coordinates": [-90.2600, 38.5600]}},
    {"type": "Feature", "properties": {"asset_id": "CP-WATER-001", "domain": "water"}, "geometry": {"type": "Point", "coordinates": [-90.1900, 38.6400]}},
    {"type": "Feature", "properties": {"asset_id": "CP-ENV-001", "domain": "environmental_monitoring"}, "geometry": {"type": "Point", "coordinates": [-90.2300, 38.6100]}}
  ]
}
